{"type": "FeatureCollection", "features": [ {"type": "Feature", "properties": {"norad_id": 31959, "name": "FENGYUN 1C DEB", "group": "fengyun-1c-debris", "lat": -28.855191326665985, "lon": 27.407655560112833, "alt_km": 727.1164712786813, "timestamp": "2025-12-07T03:52:32.782581+00:00", "meta": {"OBJECT_NAME": "FENGYUN 1C DEB", "OBJECT_ID": "1999-025CNL", "EPOCH": "2025-12-03T09:15:58.403232", "MEAN_MOTION": 14.4647152, "ECCENTRICITY": 0.00265609, "INCLINATION": 98.5103, "RA_OF_ASC_NODE": 208.3494, "ARG_OF_PERICENTER": 186.1807, "MEAN_ANOMALY": 173.9061, "EPHEMERIS_TYPE": 0, "CLASSIFICATION_TYPE": "U", "NORAD_CAT_ID": 31959, "ELEMENT_SET_NO": 999, "REV_AT_EPOCH": 64218, "BSTAR": 0.0034525583, "MEAN_MOTION_DOT": 0.0001245, "MEAN_MOTION_DDOT": 0}, "tle": {"line1": "1 31959U 99025CNL 25337.38609263  .00012450  00000+0  34526-2 0  9992", "line2": "2 31959  98.5103 208.3494 0026560 186.1807 173.9061 14.46471520642187"}}, "geometry": {"type": "Point", "coordinates": [27.407655560112833, -28.855191326665985]}}, {"type": "Feature", "properties": {"norad_id": 31964, "name": "FENGYUN 1C DEB", "group": "fengyun-1c-debris", "lat": 63.37720733872725, "lon": -57.67750256638799, "alt_km": 683.9479365887164, "timestamp": "2025-12-07T03:52:32.782591+00:00", "meta": {"OBJECT_NAME": "FENGYUN 1C DEB", "OBJECT_ID": "1999-025CNR", "EPOCH": "2025-12-06T14:10:40.867392", "MEAN_MOTION": 14.58272447, "ECCENTRICITY": 0.00288541, "INCLINATION": 98.7002, "RA_OF_ASC_NODE": 103.9384, "ARG_OF_PERICENTER": 51.5034, "MEAN_ANOMALY": 308.8744, "EPHEMERIS_TYPE": 0, "CLASSIFICATION_TYPE": "U", "NORAD_CAT_ID": 31964, "ELEMENT_SET_NO": 999, "REV_AT_EPOCH": 67420, "BSTAR": 0.0044938575, "MEAN_MOTION_DOT": 0.00020897, "MEAN_MOTION_DDOT": 0}, "tle": {"line1": "1 31964U 99025CNR 25340.59075078  .00020897  00000+0  44939-2 0  9999", "line2": "2 31964  98.7002 103.9384 0028854  51.5034 308.8744 14.58272447674201"}}, "geometry": {"type": "Point", "coordinates": [-57.67750256638799, 63.37720733872725]}}, {"type": "Feature", "properties": {"norad_id": 31966, "name": "FENGYUN 1C DEB", "group": "fengyun-1c-debris", "lat": -80.96383428015314, "lon": -139.95796333209012, "alt_km": 620.0659190271817, "timestamp": "2025-12-07T03:52:32.782602+00:00", "meta": {"OBJECT_NAME": "FENGYUN 1C DEB", "OBJECT_ID": "1999-025CNT", "EPOCH": "2025-12-06T03:43:48.292320", "MEAN_MOTION": 14.67394436, "ECCENTRICITY": 0.00862144, "INCLINATION": 99.0168, "RA_OF_ASC_NODE": 132.0897, "ARG_OF_PERICENTER": 295.1567, "MEAN_ANOMALY": 64.0711, "EPHEMERIS_TYPE": 0, "CLASSIFICATION_TYPE": "U", "NORAD_CAT_ID": 31966, "ELEMENT_SET_NO": 999, "REV_AT_EPOCH": 65646, "BSTAR": 0.0019105715, "MEAN_MOTION_DOT": 0.00011375, "MEAN_MOTION_DDOT": 0}, "tle": {"line1": "1 31966U 99025CNT 25340.15542005  .00011375  00000+0  19106-2 0  9991", "line2": "2 31966  99.0168 132.0897 0086214 295.1567  64.0711 14.67394436656469"}}, "geometry": {"type": "Point", "coordinates": [-139.95796333209012, -80.96383428015314]}}, {"type": "Feature", "properties": {"norad_id": 31972, "name": "FENGYUN 1C DEB", "group": "fengyun-1c-debris", "lat": 72.08410017373468, "lon": -7.43017306742024, "alt_km": 811.2056387977354, "timestamp": "2025-12-07T03:52:32.782612+00:00", "meta": {"OBJECT_NAME": "FENGYUN 1C DEB", "OBJECT_ID": "1999-025CNZ", "EPOCH": "2025-12-06T14:35:15.945216", "MEAN_MOTION": 14.07506464, "ECCENTRICITY": 0.00771303, "INCLINATION": 99.2128, "RA_OF_ASC_NODE": 22.138, "ARG_OF_PERICENTER": 48.7495, "MEAN_ANOMALY": 101.5389, "EPHEMERIS_TYPE": 0, "CLASSIFICATION_TYPE": "U", "NORAD_CAT_ID": 31972, "ELEMENT_SET_NO": 999, "REV_AT_EPOCH": 94874, "BSTAR": 0.0002745014, "MEAN_MOTION_DOT": 4.29e-06, "MEAN_MOTION_DDOT": 0}, "tle": {"line1": "1 31972U 99025CNZ 25340.60782344  .00000429  00000+0  27450-3 0  9990", "line2": "2 31972  99.2128  22.1380 0077130  48.7495 101.5389 14.07506464948742"}}, "geometry": {"type": "Point", "coordinates": [-7.43017306742024, 72.08410017373468]}}, {"type": "Feature", "properties": {"norad_id": 31974, "name": "FENGYUN 1C DEB", "group": "fengyun-1c-debris", "lat": 73.01936186196312, "lon": -158.6384357245345, "alt_km": 828.7106651275362, "timestamp": "2025-12-07T03:52:32.782622+00:00", "meta": {"OBJECT_NAME": "FENGYUN 1C DEB", "OBJECT_ID": "1999-025CPB", "EPOCH": "2025-12-04T11:32:51.698688", "MEAN_MOTION": 14.29356268, "ECCENTRICITY": 0.0071722, "INCLINATION": 98.3792, "RA_OF_ASC_NODE": 349.9234, "ARG_OF_PERICENTER": 327.4544, "MEAN_ANOMALY": 32.2227, "EPHEMERIS_TYPE": 0, "CLASSIFICATION_TYPE": "U", "NORAD_CAT_ID": 31974, "ELEMENT_SET_NO": 999, "REV_AT_EPOCH": 69304, "BSTAR": 0.005893, "MEAN_MOTION_DOT": 0.00015424, "MEAN_MOTION_DDOT": 0}, "tle": {"line1": "1 31974U 99025CPB 25338.48115392  .00015424  00000+0  58930-2 0  9995", "line2": "2 31974  98.3792 349.9234 0071722 327.4544  32.2227 14.29356268693042"}}, "geometry": {"type": "Point", "coordinates": [-158.6384357245345, 73.01936186196312]}}, {"type": "Feature", "properties": {"norad_id": 31978, "name": "FENGYUN 1C DEB", "group": "fengyun-1c-debris", "lat": 31.347578278461793, "lon": 131.81344710656043, "alt_km": 857.6108548130996, "timestamp": "2025-12-07T03:52:32.782633+00:00", "meta": {"OBJECT_NAME": "FENGYUN 1C DEB", "OBJECT_ID": "1999-025CPF", "EPOCH": "2025-12-05T09:26:48.442272", "MEAN_MOTION": 13.63089053, "ECCENTRICITY": 0.02631323, "INCLINATION": 98.3803, "RA_OF_ASC_NODE": 135.4409, "ARG_OF_PERICENTER": 69.4232, "MEAN_ANOMALY": 293.4931, "EPHEMERIS_TYPE": 0, "CLASSIFICATION_TYPE": "U", "NORAD_CAT_ID": 31978, "ELEMENT_SET_NO": 999, "REV_AT_EPOCH": 91490, "BSTAR": 0.0019607422, "MEAN_MOTION_DOT": 1.908e-05, "MEAN_MOTION_DDOT": 0}, "tle": {"line1": "1 31978U 99025CPF 25339.39361623  .00001908  00000+0  19607-2 0  9990", "line2": "2 31978  98.3803 135.4409 0263132  69.4232 293.4931 13.63089053914902"}}, "geometry": {"type": "Point", "coordinates": [131.81344710656043, 31.347578278461793]}}, {"type": "Feature", "properties": {"norad_id": 31979, "name": "FENGYUN 1C DEB", "group": "fengyun-1c-debris", "lat": -2.236532709842521, "lon": -106.46611767126254, "alt_km": 1078.586696130892, "timestamp": "2025-12-07T03:52:32.782643+00:00", "meta": {"OBJECT_NAME": "FENGYUN 1C DEB", "OBJECT_ID": "1999-025CPG", "EPOCH": "2025-12-02T12:28:35.492736", "MEAN_MOTION": 13.69187291, "ECCENTRICITY": 0.02646506, "INCLINATION": 99.3777, "RA_OF_ASC_NODE": 69.3826, "ARG_OF_PERICENTER": 307.5764, "MEAN_ANOMALY": 50.1611, "EPHEMERIS_TYPE": 0, "CLASSIFICATION_TYPE": "U", "NORAD_CAT_ID": 31979, "ELEMENT_SET_NO": 999, "REV_AT_EPOCH": 57772, "BSTAR": 0.003510695, "MEAN_MOTION_DOT": 3.844e-05, "MEAN_MOTION_DDOT": 0}, "tle": {"line1": "1 31979U 99025CPG 25336.51985524  .00003844  00000+0  35107-2 0  9998", "line2": "2 31979  99.3777  69.3826 0264650 307.5764  50.1611 13.69187291577721"}}, "geometry": {"type": "Point", "coordinates": [-106.46611767126254, -2.236532709842521]}}, {"type": "Feature", "properties": {"norad_id": 31984, "name": "FENGYUN 1C DEB", "group": "fengyun-1c-debris", "lat": -41.37858941272379, "lon": 158.0325236406635, "alt_km": 780.2418220046402, "timestamp": "2025-12-07T03:52:32.782654+00:00", "meta": {"OBJECT_NAME": "FENGYUN 1C DEB", "OBJECT_ID": "1999-025CPM", "EPOCH": "2025-12-02T19:53:15.322848", "MEAN_MOTION": 14.2293256, "ECCENTRICITY": 0.00625309, "INCLINATION": 98.5577, "RA_OF_ASC_NODE": 341.445, "ARG_OF_PERICENTER": 256.5759, "MEAN_ANOMALY": 102.8445, "EPHEMERIS_TYPE": 0, "CLASSIFICATION_TYPE": "U", "NORAD_CAT_ID": 31984, "ELEMENT_SET_NO": 999, "REV_AT_EPOCH": 94232, "BSTAR": 0.00049073387, "MEAN_MOTION_DOT": 1.083e-05, "MEAN_MOTION_DDOT": 0}, "tle": {"line1": "1 31984U 99025CPM 25336.82864957  .00001083  00000+0  49073-3 0  9995", "line2": "2 31984  98.5577 341.4450 0062530 256.5759 102.8445 14.22932560942322"}}, "geometry": {"type": "Point", "coordinates": [158.0325236406635, -41.37858941272379]}}, {"type": "Feature", "properties": {"norad_id": 31985, "name": "FENGYUN 1C DEB", "group": "fengyun-1c-debris", "lat": -1.843756092258289, "lon": -116.98615825787154, "alt_km": 825.8721264120941, "timestamp": "2025-12-07T03:52:32.782664+00:00", "meta": {"OBJECT_NAME": "FENGYUN 1C DEB", "OBJECT_ID": "1999-025CPN", "EPOCH": "2025-11-24T23:55:40.651392", "MEAN_MOTION": 14.22924304, "ECCENTRICITY": 0.01509495, "INCLINATION": 98.2192, "RA_OF_ASC_NODE": 231.3867, "ARG_OF_PERICENTER": 299.2224, "MEAN_ANOMALY": 59.3931, "EPHEMERIS_TYPE": 0, "CLASSIFICATION_TYPE": "U", "NORAD_CAT_ID": 31985, "ELEMENT_SET_NO": 999, "REV_AT_EPOCH": 95358, "BSTAR": 0.0005103033, "MEAN_MOTION_DOT": 1.248e-05, "MEAN_MOTION_DDOT": 0}, "tle": {"line1": "1 31985U 99025CPN 25328.99699828  .00001248  00000+0  51030-3 0  9997", "line2": "2 31985  98.2192 231.3867 0150949 299.2224  59.3931 14.22924304953588"}}, "geometry": {"type": "Point", "coordinates": [-116.98615825787154, -1.843756092258289]}}, {"type": "Feature", "properties": {"norad_id": 31987, "name": "FENGYUN 1C DEB", "group": "fengyun-1c-debris", "lat": 58.06543085539304, "lon": -60.383909190239706, "alt_km": 752.0955693796868, "timestamp": "2025-12-07T03:52:32.782674+00:00", "meta": {"OBJECT_NAME": "FENGYUN 1C DEB", "OBJECT_ID": "1999-025CPQ", "EPOCH": "2025-12-06T10:01:04.571328", "MEAN_MOTION": 14.4484667, "ECCENTRICITY": 0.00511263, "INCLINATION": 99.0387, "RA_OF_ASC_NODE": 313.6218, "ARG_OF_PERICENTER": 176.5053, "MEAN_ANOMALY": 335.2452, "EPHEMERIS_TYPE": 0, "CLASSIFICATION_TYPE": "U", "NORAD_CAT_ID": 31987, "ELEMENT_SET_NO": 999, "REV_AT_EPOCH": 96278, "BSTAR": 0.0019083415, "MEAN_MOTION_DOT": 6.7e-05, "MEAN_MOTION_DDOT": 0}, "tle": {"line1": "1 31987U 99025CPQ 25340.41741402  .00006700  00000+0  19083-2 0  9995", "line2": "2 31987  99.0387 313.6218 0051126 176.5053 335.2452 14.44846670962782"}}, "geometry": {"type": "Point", "coordinates": [-60.383909190239706, 58.06543085539304]}}]}